ORBCOMM FM33            
1 25983U 99065D   24293.46843112  .00007686  00000+0  25271-2 0  9990
2 25983  45.0290  62.3722 0009131 279.3538  80.6279 14.38647787301384
ORBCOMM FM36            
1 25984U 99065E   24293.32315476  .00006766  00000+0  23215-2 0  9997
2 25984  45.0374 151.2671 0003646 161.2942 198.8040 14.36685974299766
ORBCOMM FM35            
1 25985U 99065F   24293.35663022  .00005108  00000+0  17906-2 0  9993
2 25985  45.0379 154.4316 0002980 271.4346  88.6161 14.35960905300150
ORBCOMM FM34            
1 25986U 99065G   24293.32874605  .00005378  00000+0  18820-2 0  9997
2 25986  45.0370 155.1100 0003400 210.2237 149.8416 14.35980836300269
ORBCOMM FM38            
1 33060U 08031A   24293.52531618  .00010465  00000+0  14226-2 0  9997
2 33060  48.4419  20.4788 0004374  80.3162 279.8246 14.79135142879099
ORBCOMM FM41            
1 33061U 08031B   24293.48650648  .00009968  00000+0  13668-2 0  9993
2 33061  48.4451  27.6793 0003643  61.3780  43.2338 14.78815320878584
ORBCOMM FM29            
1 33062U 08031C   24293.33218882  .00011648  00000+0  15921-2 0  9990
2 33062  48.4401  36.4285 0005384  62.7489 335.6299 14.78807125878475
ORBCOMM FM39            
1 33063U 08031D   24293.47646787  .00009622  00000+0  13578-2 0  9990
2 33063  48.4409  57.5839 0006483  37.7797 322.3571 14.77618708878177
