<?xml version="1.0" encoding="UTF-8"?>
<ndm xmlns:xsi="http://www.w3.org/2001/XMLSchema-instance" xsi:noNamespaceSchemaLocation="https://sanaregistry.org/r/ndmxml_unqualified/ndmxml-2.0.0-master-2.0.xsd">
<omm id="CCSDS_OMM_VERS" version="2.0">
<header><CREATION_DATE/><ORIGINATOR/></header><body><segment><metadata><OBJECT_NAME>ORBCOMM FM33</OBJECT_NAME><OBJECT_ID>1999-065D</OBJECT_ID><CENTER_NAME>EARTH</CENTER_NAME><REF_FRAME>TEME</REF_FRAME><TIME_SYSTEM>UTC</TIME_SYSTEM><MEAN_ELEMENT_THEORY>SGP4</MEAN_ELEMENT_THEORY></metadata><data><meanElements><EPOCH>2024-10-19T11:14:32.448768</EPOCH><MEAN_MOTION>14.38647787</MEAN_MOTION><ECCENTRICITY>.0009131</ECCENTRICITY><INCLINATION>45.0290</INCLINATION><RA_OF_ASC_NODE>62.3722</RA_OF_ASC_NODE><ARG_OF_PERICENTER>279.3538</ARG_OF_PERICENTER><MEAN_ANOMALY>80.6279</MEAN_ANOMALY></meanElements><tleParameters><EPHEMERIS_TYPE>0</EPHEMERIS_TYPE><CLASSIFICATION_TYPE>U</CLASSIFICATION_TYPE><NORAD_CAT_ID>25983</NORAD_CAT_ID><ELEMENT_SET_NO>999</ELEMENT_SET_NO><REV_AT_EPOCH>30138</REV_AT_EPOCH><BSTAR>.25271E-2</BSTAR><MEAN_MOTION_DOT>.7686E-4</MEAN_MOTION_DOT><MEAN_MOTION_DDOT>0</MEAN_MOTION_DDOT></tleParameters></data></segment></body></omm>
<omm id="CCSDS_OMM_VERS" version="2.0">
<header><CREATION_DATE/><ORIGINATOR/></header><body><segment><metadata><OBJECT_NAME>ORBCOMM FM36</OBJECT_NAME><OBJECT_ID>1999-065E</OBJECT_ID><CENTER_NAME>EARTH</CENTER_NAME><REF_FRAME>TEME</REF_FRAME><TIME_SYSTEM>UTC</TIME_SYSTEM><MEAN_ELEMENT_THEORY>SGP4</MEAN_ELEMENT_THEORY></metadata><data><meanElements><EPOCH>2024-10-19T07:45:20.571264</EPOCH><MEAN_MOTION>14.36685974</MEAN_MOTION><ECCENTRICITY>.0003646</ECCENTRICITY><INCLINATION>45.0374</INCLINATION><RA_OF_ASC_NODE>151.2671</RA_OF_ASC_NODE><ARG_OF_PERICENTER>161.2942</ARG_OF_PERICENTER><MEAN_ANOMALY>198.8040</MEAN_ANOMALY></meanElements><tleParameters><EPHEMERIS_TYPE>0</EPHEMERIS_TYPE><CLASSIFICATION_TYPE>U</CLASSIFICATION_TYPE><NORAD_CAT_ID>25984</NORAD_CAT_ID><ELEMENT_SET_NO>999</ELEMENT_SET_NO><REV_AT_EPOCH>29976</REV_AT_EPOCH><BSTAR>.23215E-2</BSTAR><MEAN_MOTION_DOT>.6766E-4</MEAN_MOTION_DOT><MEAN_MOTION_DDOT>0</MEAN_MOTION_DDOT></tleParameters></data></segment></body></omm>
<omm id="CCSDS_OMM_VERS" version="2.0">
<header><CREATION_DATE/><ORIGINATOR/></header><body><segment><metadata><OBJECT_NAME>ORBCOMM FM35</OBJECT_NAME><OBJECT_ID>1999-065F</OBJECT_ID><CENTER_NAME>EARTH</CENTER_NAME><REF_FRAME>TEME</REF_FRAME><TIME_SYSTEM>UTC</TIME_SYSTEM><MEAN_ELEMENT_THEORY>SGP4</MEAN_ELEMENT_THEORY></metadata><data><meanElements><EPOCH>2024-10-19T08:33:32.851008</EPOCH><MEAN_MOTION>14.35960905</MEAN_MOTION><ECCENTRICITY>.000298</ECCENTRICITY><INCLINATION>45.0379</INCLINATION><RA_OF_ASC_NODE>154.4316</RA_OF_ASC_NODE><ARG_OF_PERICENTER>271.4346</ARG_OF_PERICENTER><MEAN_ANOMALY>88.6161</MEAN_ANOMALY></meanElements><tleParameters><EPHEMERIS_TYPE>0</EPHEMERIS_TYPE><CLASSIFICATION_TYPE>U</CLASSIFICATION_TYPE><NORAD_CAT_ID>25985</NORAD_CAT_ID><ELEMENT_SET_NO>999</ELEMENT_SET_NO><REV_AT_EPOCH>30015</REV_AT_EPOCH><BSTAR>.17906E-2</BSTAR><MEAN_MOTION_DOT>.5108E-4</MEAN_MOTION_DOT><MEAN_MOTION_DDOT>0</MEAN_MOTION_DDOT></tleParameters></data></segment></body></omm>
<omm id="CCSDS_OMM_VERS" version="2.0">
<header><CREATION_DATE/><ORIGINATOR/></header><body><segment><metadata><OBJECT_NAME>ORBCOMM FM34</OBJECT_NAME><OBJECT_ID>1999-065G</OBJECT_ID><CENTER_NAME>EARTH</CENTER_NAME><REF_FRAME>TEME</REF_FRAME><TIME_SYSTEM>UTC</TIME_SYSTEM><MEAN_ELEMENT_THEORY>SGP4</MEAN_ELEMENT_THEORY></metadata><data><meanElements><EPOCH>2024-10-19T07:53:23.658720</EPOCH><MEAN_MOTION>14.35980836</MEAN_MOTION><ECCENTRICITY>.00034</ECCENTRICITY><INCLINATION>45.0370</INCLINATION><RA_OF_ASC_NODE>155.1100</RA_OF_ASC_NODE><ARG_OF_PERICENTER>210.2237</ARG_OF_PERICENTER><MEAN_ANOMALY>149.8416</MEAN_ANOMALY></meanElements><tleParameters><EPHEMERIS_TYPE>0</EPHEMERIS_TYPE><CLASSIFICATION_TYPE>U</CLASSIFICATION_TYPE><NORAD_CAT_ID>25986</NORAD_CAT_ID><ELEMENT_SET_NO>999</ELEMENT_SET_NO><REV_AT_EPOCH>30026</REV_AT_EPOCH><BSTAR>.1882E-2</BSTAR><MEAN_MOTION_DOT>.5378E-4</MEAN_MOTION_DOT><MEAN_MOTION_DDOT>0</MEAN_MOTION_DDOT></tleParameters></data></segment></body></omm>
<omm id="CCSDS_OMM_VERS" version="2.0">
<header><CREATION_DATE/><ORIGINATOR/></header><body><segment><metadata><OBJECT_NAME>ORBCOMM FM38</OBJECT_NAME><OBJECT_ID>2008-031A</OBJECT_ID><CENTER_NAME>EARTH</CENTER_NAME><REF_FRAME>TEME</REF_FRAME><TIME_SYSTEM>UTC</TIME_SYSTEM><MEAN_ELEMENT_THEORY>SGP4</MEAN_ELEMENT_THEORY></metadata><data><meanElements><EPOCH>2024-10-19T12:36:27.317952</EPOCH><MEAN_MOTION>14.79135142</MEAN_MOTION><ECCENTRICITY>.0004374</ECCENTRICITY><INCLINATION>48.4419</INCLINATION><RA_OF_ASC_NODE>20.4788</RA_OF_ASC_NODE><ARG_OF_PERICENTER>80.3162</ARG_OF_PERICENTER><MEAN_ANOMALY>279.8246</MEAN_ANOMALY></meanElements><tleParameters><EPHEMERIS_TYPE>0</EPHEMERIS_TYPE><CLASSIFICATION_TYPE>U</CLASSIFICATION_TYPE><NORAD_CAT_ID>33060</NORAD_CAT_ID><ELEMENT_SET_NO>999</ELEMENT_SET_NO><REV_AT_EPOCH>87909</REV_AT_EPOCH><BSTAR>.14226E-2</BSTAR><MEAN_MOTION_DOT>.10465E-3</MEAN_MOTION_DOT><MEAN_MOTION_DDOT>0</MEAN_MOTION_DDOT></tleParameters></data></segment></body></omm>
<omm id="CCSDS_OMM_VERS" version="2.0">
<header><CREATION_DATE/><ORIGINATOR/></header><body><segment><metadata><OBJECT_NAME>ORBCOMM FM41</OBJECT_NAME><OBJECT_ID>2008-031B</OBJECT_ID><CENTER_NAME>EARTH</CENTER_NAME><REF_FRAME>TEME</REF_FRAME><TIME_SYSTEM>UTC</TIME_SYSTEM><MEAN_ELEMENT_THEORY>SGP4</MEAN_ELEMENT_THEORY></metadata><data><meanElements><EPOCH>2024-10-19T11:40:34.159872</EPOCH><MEAN_MOTION>14.78815320</MEAN_MOTION><ECCENTRICITY>.0003643</ECCENTRICITY><INCLINATION>48.4451</INCLINATION><RA_OF_ASC_NODE>27.6793</RA_OF_ASC_NODE><ARG_OF_PERICENTER>61.3780</ARG_OF_PERICENTER><MEAN_ANOMALY>43.2338</MEAN_ANOMALY></meanElements><tleParameters><EPHEMERIS_TYPE>0</EPHEMERIS_TYPE><CLASSIFICATION_TYPE>U</CLASSIFICATION_TYPE><NORAD_CAT_ID>33061</NORAD_CAT_ID><ELEMENT_SET_NO>999</ELEMENT_SET_NO><REV_AT_EPOCH>87858</REV_AT_EPOCH><BSTAR>.13668E-2</BSTAR><MEAN_MOTION_DOT>.9968E-4</MEAN_MOTION_DOT><MEAN_MOTION_DDOT>0</MEAN_MOTION_DDOT></tleParameters></data></segment></body></omm>
<omm id="CCSDS_OMM_VERS" version="2.0">
<header><CREATION_DATE/><ORIGINATOR/></header><body><segment><metadata><OBJECT_NAME>ORBCOMM FM29</OBJECT_NAME><OBJECT_ID>2008-031C</OBJECT_ID><CENTER_NAME>EARTH</CENTER_NAME><REF_FRAME>TEME</REF_FRAME><TIME_SYSTEM>UTC</TIME_SYSTEM><MEAN_ELEMENT_THEORY>SGP4</MEAN_ELEMENT_THEORY></metadata><data><meanElements><EPOCH>2024-10-19T07:58:21.114048</EPOCH><MEAN_MOTION>14.78807125</MEAN_MOTION><ECCENTRICITY>.0005384</ECCENTRICITY><INCLINATION>48.4401</INCLINATION><RA_OF_ASC_NODE>36.4285</RA_OF_ASC_NODE><ARG_OF_PERICENTER>62.7489</ARG_OF_PERICENTER><MEAN_ANOMALY>335.6299</MEAN_ANOMALY></meanElements><tleParameters><EPHEMERIS_TYPE>0</EPHEMERIS_TYPE><CLASSIFICATION_TYPE>U</CLASSIFICATION_TYPE><NORAD_CAT_ID>33062</NORAD_CAT_ID><ELEMENT_SET_NO>999</ELEMENT_SET_NO><REV_AT_EPOCH>87847</REV_AT_EPOCH><BSTAR>.15921E-2</BSTAR><MEAN_MOTION_DOT>.11648E-3</MEAN_MOTION_DOT><MEAN_MOTION_DDOT>0</MEAN_MOTION_DDOT></tleParameters></data></segment></body></omm>
<omm id="CCSDS_OMM_VERS" version="2.0">
<header><CREATION_DATE/><ORIGINATOR/></header><body><segment><metadata><OBJECT_NAME>ORBCOMM FM39</OBJECT_NAME><OBJECT_ID>2008-031D</OBJECT_ID><CENTER_NAME>EARTH</CENTER_NAME><REF_FRAME>TEME</REF_FRAME><TIME_SYSTEM>UTC</TIME_SYSTEM><MEAN_ELEMENT_THEORY>SGP4</MEAN_ELEMENT_THEORY></metadata><data><meanElements><EPOCH>2024-10-19T11:26:06.823968</EPOCH><MEAN_MOTION>14.77618708</MEAN_MOTION><ECCENTRICITY>.0006483</ECCENTRICITY><INCLINATION>48.4409</INCLINATION><RA_OF_ASC_NODE>57.5839</RA_OF_ASC_NODE><ARG_OF_PERICENTER>37.7797</ARG_OF_PERICENTER><MEAN_ANOMALY>322.3571</MEAN_ANOMALY></meanElements><tleParameters><EPHEMERIS_TYPE>0</EPHEMERIS_TYPE><CLASSIFICATION_TYPE>U</CLASSIFICATION_TYPE><NORAD_CAT_ID>33063</NORAD_CAT_ID><ELEMENT_SET_NO>999</ELEMENT_SET_NO><REV_AT_EPOCH>87817</REV_AT_EPOCH><BSTAR>.13578E-2</BSTAR><MEAN_MOTION_DOT>.9622E-4</MEAN_MOTION_DOT><MEAN_MOTION_DDOT>0</MEAN_MOTION_DDOT></tleParameters></data></segment></body></omm>

</ndm>
